RAVAN                   
1 41849U 16067B   23011.97186429  .00008828  00000+0  66617-3 0  9993
2 41849  98.0128 160.4543 0017443 354.8588   5.2454 15.02558697337280
CELTEE 1                
1 41850U 16067C   23011.85756505  .00005179  00000+0  42596-3 0  9996
2 41850  98.0207 154.6204 0006150  14.3609 345.7787 14.99575657336970
OPTICUBE 04             
1 41851U 16067D   23011.82097929  .00002790  00000+0  23818-3 0  9994
2 41851  98.0236 153.3267 0009496  17.3778 342.7767 14.98530301336908
AEROCUBE 8D             
1 41852U 16067E   23011.65240226  .00005808  00000+0  47644-3 0  9992
2 41852  98.0177 153.3828 0006774  13.8587 346.2819 14.99625322336884
AEROCUBE 8C             
1 41853U 16067F   23011.83737985  .00005564  00000+0  45668-3 0  9999
2 41853  98.0176 153.3765 0009445 356.8608   3.2553 14.99608217336908
PROMETHEUS 2-1          
1 41854U 16067G   23012.19471277  .00010198  00000+0  78512-3 0  9992
2 41854  98.0478 155.5403 0018255  20.9495 339.2472 15.01740329337042
PROMETHEUS 2-3          
1 41855U 16067H   23011.65286750  .00009695  00000+0  74783-3 0  9999
2 41855  98.0404 155.0079 0016029  37.3946 322.8389 15.01714372336960
INS-1B                  
1 41954U 17008G   23011.59162898  .00036199  00000+0  93995-3 0  9999
2 41954  97.2290  72.7156 0005623 196.6252 163.4810 15.38866698328667
BGUSAT                  
1 41999U 17008BD  23012.15023362  .00211468  00000+0  19135-2 0  9990
2 41999  97.2533  89.2621 0001565 172.7340 187.3944 15.67417086328961
DIDO-2                  
1 42000U 17008BE  23011.90935641  .00019953  00000+0  64036-3 0  9994
2 42000  97.2287  71.0585 0005539 228.4478 131.6290 15.32332973327941
PEASSS                  
1 42015U 17008BV  23011.91258824  .00031562  00000+0  84453-3 0  9997
2 42015  97.2356  76.3299 0003558 210.4990 149.6048 15.37978156328735
AL-FARABI 1             
1 42016U 17008BW  23011.89915387  .00049142  00000+0  10705-2 0  9990
2 42016  97.2428  80.7843 0002859 204.3509 155.7605 15.44115551329098
NAYIF-1 (EO-88)         
1 42017U 17008BX  23011.43336107  .00049576  00000+0  10699-2 0  9991
2 42017  97.2418  80.3732 0002989 204.9990 155.1114 15.44390152329052
UCLSAT                  
1 42765U 17036A   23011.88759412  .00032620  00000+0  92200-3 0  9990
2 42765  97.1699  53.4732 0006759 303.9283  56.1318 15.36250211309772
LITUANICASAT-2          
1 42768U 17036D   23012.07646164  .00110110  00000+0  17228-2 0  9991
2 42768  97.1756  59.5627 0006224 266.3902  93.6640 15.53351978309401
AALTO-1                 
1 42775U 17036L   23011.54419048  .00015567  00000+0  55263-3 0  9991
2 42775  97.1738  46.6359 0010113 313.6960  46.3442 15.29079123308530
URSA MAIOR              
1 42776U 17036M   23012.08064234  .00018043  00000+0  62017-3 0  9992
2 42776  97.1750  48.1400 0009649 309.4556  50.5831 15.30106978308669
COMPASS 2               
1 42777U 17036N   23011.86245818  .00058527  00000+0  13159-2 0  9990
2 42777  97.1760  57.0311 0006247 283.3065  76.7486 15.43114378309155
DIAMOND RED             
1 42783U 17036U   23011.84825715  .00021850  00000+0  70961-3 0  9999
2 42783  97.1746  50.7013 0008131 314.7871  45.2709 15.31915244308799
PEGASUS                 
1 42784U 17036V   23011.83273207  .00028977  00000+0  86107-3 0  9998
2 42784  97.1732  52.4025 0007411 308.4019  51.6559 15.34696816308902
DIAMOND GREEN           
1 42785U 17036W   23011.84309840  .00022723  00000+0  73361-3 0  9994
2 42785  97.1747  50.7755 0007928 316.6826  43.3792 15.32098450308860
DIAMOND BLUE            
1 42786U 17036X   23011.58299947  .00022322  00000+0  72246-3 0  9998
2 42786  97.1747  50.5119 0008078 318.3308  41.7318 15.32021217308823
NUDTSAT                 
1 42787U 17036Y   23011.91877540  .00054993  00000+0  11476-2 0  9993
2 42787  97.1736  58.7749 0005002 279.4417  80.6298 15.45347477309141
SUCHAI                  
1 42788U 17036Z   23011.82707686  .00037846  00000+0  10049-2 0  9990
2 42788  97.1725  54.7758 0006427 300.9912  59.0702 15.38163685309125
SKCUBE                  
1 42789U 17036AA  23011.84055486  .00032865  00000+0  92066-3 0  9993
2 42789  97.1725  53.9210 0006657 303.0985  56.9620 15.36528771308997
VZLUSAT-1               
1 42790U 17036AB  23011.37816200  .00058581  00000+0  12422-2 0  9992
2 42790  97.1734  58.1326 0004988 288.6110  71.4597 15.44860564309205
ROBUSTA 1B              
1 42792U 17036AD  23011.89049244  .00036514  00000+0  98625-3 0  9999
2 42792  97.1721  54.7553 0006113 301.9361  58.1289 15.37644988309062
CICERO 6                
1 42793U 17036AE  23012.16405050  .00018457  00000+0  61025-3 0  9992
2 42793  97.1726  51.4236 0006843 315.4058  44.6633 15.31380657308968
CORVUS BC2              
1 42846U 17042X   23011.89310873  .00002518  00000+0  24345-3 0  9990
2 42846  97.3972 222.1911 0010002  26.0389 334.1333 14.93581847299383
CORVUS BC1              
1 42847U 17042Y   23011.82694108  .00002577  00000+0  24859-3 0  9995
2 42847  97.3973 222.4657 0009663  25.4726 334.6969 14.93662897299389
MIRATA                  
1 43015U 17073C   23011.97115582  .00015326  00000+0  10521-2 0  9993
2 43015  97.6524 264.6860 0226273 213.5409 145.1310 14.87550192278224
MAKERSAT 0              
1 43016U 17073D   23011.62765834  .00009798  00000+0  70166-3 0  9995
2 43016  97.6528 263.3091 0236435 221.2663 137.0474 14.84763101278055
CORVUS BC3              
1 43118U 18004H   23011.62045691  .00019579  00000+0  65017-3 0  9992
2 43118  97.3416  86.8601 0008302 354.5881   5.5269 15.31221204278022
MICROMAS-2A             
1 43131U 18004W   23012.21665128  .00100404  00000+0  16350-2 0  9999
2 43131  97.3551  98.6066 0005327 318.1228  41.9616 15.52278602278755
CICERO 7                
1 43143U 18004AJ  23011.68031873  .00025444  00000+0  61765-3 0  9997
2 43143  97.3569  95.8878 0004567 347.6881  12.4253 15.41001834278551
GOMX-4B                 
1 43196U 18015E   23011.86572876  .00015932  00000+0  54145-3 0  9995
2 43196  97.5575 159.0088 0017183  43.9436 316.3168 15.30412180274997
GOMX-4A                 
1 43197U 18015F   23012.10918053  .00014773  00000+0  46860-3 0  9992
2 43197  97.5561 160.6782 0016576  41.3148  75.0397 15.32661247275131
AEROCUBE 12A            
1 43556U 18046C   23012.11145442  .00061461  00000+0  10250-2 0  9999
2 43556  51.6315 239.3672 0006476 101.2547 258.9170 15.51364002251558
AEROCUBE 12B            
1 43557U 18046D   23011.95110408  .00044804  00000+0  89990-3 0  9995
2 43557  51.6332 249.4451 0007180  86.3471 273.8337 15.46180941251358
SURFSAT                 
1 43614U 18070B   23012.26492963  .00532350  11707-3  13100-2 0  9997
2 43614  92.9907 188.5530 0004754 290.3747  69.7027 15.96045150243767
CP7 (DAVE)              
1 43615U 18070C   23012.00750580  .00264551  00000+0  11651-2 0  9996
2 43615  92.9943 187.8424 0005579 281.5714  78.4938 15.83855730243626
CUBEBEL-1 (BSUSAT-1)    
1 43666U 18083E   23012.15519196  .00021297  00000+0  77765-3 0  9995
2 43666  97.4007  43.8429 0010566 325.4139 123.4921 15.28089477233291
CICERO 10               
1 43690U 18088A   23011.88308380  .00023963  00000+0  84417-3 0  9991
2 43690  85.0359 177.6358 0013882  93.1491 267.1344 15.29077893231554
IRVINE01                
1 43693U 18088D   23011.46089635  .00436384  00000+0  27875-2 0  9996
2 43693  85.0142 167.2813 0008400 348.4585  11.6492 15.75121026232420
PROXIMA I               
1 43694U 18088E   23011.87199838  .00021346  00000+0  71123-3 0  9993
2 43694  85.0290 173.7910 0016783  62.6413 297.6539 15.30843887231809
PROXIMA II              
1 43696U 18088G   23011.87689993  .00020604  00000+0  68766-3 0  9996
2 43696  85.0294 173.8184 0016886  62.4289 297.8670 15.30788561231795
FACSAT-1                
1 43721U 18096C   23012.21052479  .00059769  00000+0  11205-2 0  9995
2 43721  97.3327  98.0520 0010630  19.6372  32.9379 15.48396663230124
CENTAURI-2              
1 43722U 18096D   23011.96506138  .00131627  00000+0  16548-2 0  9992
2 43722  97.3360 101.6919 0008807   0.4428 359.6835 15.59192014230300
SIRION PATHFINDER-2     
1 43759U 18099B   23011.82366077  .00003574  00000+0  31306-3 0  9995
2 43759  97.5957  77.9541 0012540 284.2710  75.7120 14.97248315224218
CORVUS BC4              
1 43767U 18099K   23012.12810183  .00004939  00000+0  43739-3 0  9999
2 43767  97.5913  76.4458 0009523 291.1268  68.8935 14.96665822224179
MOVE-II                 
1 43780U 18099Y   23011.60503214  .00010120  00000+0  81961-3 0  9998
2 43780  97.6043  79.1598 0009812 303.4631  56.5654 14.99879216224232
SPACEBEE-7              
1 43816U 18099BL  23011.42788170  .00007189  00000+0  59160-3 0  9991
2 43816  97.6022  79.6851 0011931 278.7887  81.1985 14.99348751223794
SPACEBEE-5              
1 43817U 18099BM  23011.82399116  .00026993  00000+0  18436-2 0  9998
2 43817  97.6121  84.7063 0004254 268.0897  91.9843 15.06131883224079
SPACEBEE-6              
1 43818U 18099BN  23011.66390791  .00013073  00000+0  10193-2 0  9998
2 43818  97.6115  81.3126 0014606 290.6657  69.3001 15.01221638224048
SHIELDS 1               
1 43850U 18104B   23011.73220906  .00008634  00000+0  33919-3 0  9998
2 43850  85.0273 273.8386 0011997 207.9540 152.1061 15.25462937226233
STF-1                   
1 43852U 18104D   23011.67422049  .00025466  00000+0  82111-3 0  9995
2 43852  85.0281 273.3046 0009214 214.7088 145.3559 15.31994202226355
ZACUBE-2                
1 43907U 18111AH  23012.28866612  .00017197  00000+0  55699-3 0  9993
2 43907  97.1624 256.3023 0019836  57.8574  75.8019 15.31887190225213
LUME 1                  
1 43908U 18111AJ  23011.92154730  .00025772  00000+0  73811-3 0  9999
2 43908  97.1635 258.4474 0017826  50.8708 309.4117 15.35745849225323
AOBA VELOX-IV           
1 43940U 19003J   23012.07998697  .00115279  00000+0  17768-2 0  9991
2 43940  97.1054  48.3655 0013451 102.9104 257.3654 15.53669847222316
